start=new Date('2023-02-16T00:00:00.000Z').valueOf();
sats=[{"EPOCH":"2023-02-15T11:08:20.555520","PERIOD":"95.922","CLASSIFICATION_TYPE":"U","TLE_LINE2":"2 53053  97.6563 229.2792 0001043 254.3924 105.7186 15.01225752 33143","OBJECT_NAME":"STARLINK-4337","COUNTRY_CODE":"US","DECAY_DATE":null,"MEAN_ELEMENT_THEORY":"SGP4","PERIAPSIS":"562.393","INCLINATION":"97.6563","APOAPSIS":"563.841","RCS_SIZE":"LARGE","OBJECT_ID":"2022-077L","MEAN_MOTION_DDOT":"0.0000000000000","ELEMENT_SET_NO":"999","LAUNCH_DATE":"2022-07-11","REV_AT_EPOCH":"3314","FILE":"3793706","OBJECT_TYPE":"PAYLOAD","BSTAR":"0.00081116000000","NORAD_CAT_ID":"53053","MEAN_ANOMALY":"105.7186","EPHEMERIS_TYPE":"0","TIME_SYSTEM":"UTC","MEAN_MOTION_DOT":"0.00010366","GP_ID":"225493707","ECCENTRICITY":"0.00010430","SITE":"AFWTR","CENTER_NAME":"EARTH","ARG_OF_PERICENTER":"254.3924","SEMIMAJOR_AXIS":"6941.252","TLE_LINE1":"1 53053U 22077L   23046.46412680  .00010366  00000-0  81116-3 0  9996","REF_FRAME":"TEME","RA_OF_ASC_NODE":"229.2792","MEAN_MOTION":"15.01225752"},{"MEAN_MOTION":"15.01268158","RA_OF_ASC_NODE":"229.5440","REF_FRAME":"TEME","TLE_LINE1":"1 53054U 22077M   23046.73627140  .00001126  00000-0  92203-4 0  9990","SEMIMAJOR_AXIS":"6941.122","ARG_OF_PERICENTER":"239.0531","CENTER_NAME":"EARTH","SITE":"AFWTR","GP_ID":"225553936","ECCENTRICITY":"0.00004490","MEAN_MOTION_DOT":"0.00001126","NORAD_CAT_ID":"53054","MEAN_ANOMALY":"121.0649","EPHEMERIS_TYPE":"0","TIME_SYSTEM":"UTC","BSTAR":"0.00009220300000","OBJECT_TYPE":"PAYLOAD","FILE":"3795153","REV_AT_EPOCH":"3318","LAUNCH_DATE":"2022-07-11","ELEMENT_SET_NO":"999","MEAN_MOTION_DDOT":"0.0000000000000","OBJECT_ID":"2022-077M","APOAPSIS":"563.298","RCS_SIZE":"LARGE","INCLINATION":"97.6550","PERIAPSIS":"562.675","MEAN_ELEMENT_THEORY":"SGP4","DECAY_DATE":null,"COUNTRY_CODE":"US","OBJECT_NAME":"STARLINK-4339","CLASSIFICATION_TYPE":"U","TLE_LINE2":"2 53054  97.6550 229.5440 0000449 239.0531 121.0649 15.01268158 33182","PERIOD":"95.919","EPOCH":"2023-02-15T17:40:13.848960"},{"REV_AT_EPOCH":"3317","FILE":"3795153","OBJECT_TYPE":"PAYLOAD","BSTAR":"0.00029119000000","NORAD_CAT_ID":"53055","TIME_SYSTEM":"UTC","EPHEMERIS_TYPE":"0","MEAN_ANOMALY":"260.1608","MEAN_MOTION_DOT":"0.00003684","GP_ID":"225552700","ECCENTRICITY":"0.00004380","SITE":"AFWTR","CENTER_NAME":"EARTH","ARG_OF_PERICENTER":"99.9665","SEMIMAJOR_AXIS":"6941.103","TLE_LINE1":"1 53055U 22077N   23046.66221467  .00003684  00000-0  29119-3 0  9991","REF_FRAME":"TEME","RA_OF_ASC_NODE":"229.4769","MEAN_MOTION":"15.01274124","EPOCH":"2023-02-15T15:53:35.347488","PERIOD":"95.919","CLASSIFICATION_TYPE":"U","TLE_LINE2":"2 53055  97.6578 229.4769 0000438  99.9665 260.1608 15.01274124 33174","OBJECT_NAME":"STARLINK-4338","COUNTRY_CODE":"US","DECAY_DATE":null,"MEAN_ELEMENT_THEORY":"SGP4","PERIAPSIS":"562.664","INCLINATION":"97.6578","RCS_SIZE":"LARGE","APOAPSIS":"563.272","OBJECT_ID":"2022-077N","MEAN_MOTION_DDOT":"0.0000000000000","ELEMENT_SET_NO":"999","LAUNCH_DATE":"2022-07-11"},{"OBJECT_TYPE":"PAYLOAD","FILE":"3793706","REV_AT_EPOCH":"3314","NORAD_CAT_ID":"53056","EPHEMERIS_TYPE":"0","MEAN_ANOMALY":"104.5434","TIME_SYSTEM":"UTC","BSTAR":"0.00006947600000","ECCENTRICITY":"0.00007410","GP_ID":"225493454","MEAN_MOTION_DOT":"0.00000834","CENTER_NAME":"EARTH","SITE":"AFWTR","TLE_LINE1":"1 53056U 22077P   23046.46596264  .00000834  00000-0  69476-4 0  9995","SEMIMAJOR_AXIS":"6941.133","ARG_OF_PERICENTER":"255.5708","RA_OF_ASC_NODE":"229.2788","REF_FRAME":"TEME","MEAN_MOTION":"15.01264469","PERIOD":"95.919","EPOCH":"2023-02-15T11:10:59.172096","OBJECT_NAME":"STARLINK-4314","CLASSIFICATION_TYPE":"U","TLE_LINE2":"2 53056  97.6561 229.2788 0000741 255.5708 104.5434 15.01264469 33147","DECAY_DATE":null,"COUNTRY_CODE":"US","MEAN_ELEMENT_THEORY":"SGP4","INCLINATION":"97.6561","PERIAPSIS":"562.484","RCS_SIZE":"LARGE","APOAPSIS":"563.512","MEAN_MOTION_DDOT":"0.0000000000000","OBJECT_ID":"2022-077P","LAUNCH_DATE":"2022-07-11","ELEMENT_SET_NO":"999"},{"INCLINATION":"97.6570","PERIAPSIS":"562.380","RCS_SIZE":"LARGE","APOAPSIS":"563.594","MEAN_MOTION_DDOT":"0.0000000000000","OBJECT_ID":"2022-077Q","LAUNCH_DATE":"2022-07-11","ELEMENT_SET_NO":"999","PERIOD":"95.919","EPOCH":"2023-02-15T22:12:10.965888","OBJECT_NAME":"STARLINK-4252","TLE_LINE2":"2 53057  97.6570 229.7391 0000875  89.7654 270.3671 15.01268029 33217","CLASSIFICATION_TYPE":"U","DECAY_DATE":null,"COUNTRY_CODE":"US","MEAN_ELEMENT_THEORY":"SGP4","CENTER_NAME":"EARTH","SITE":"AFWTR","TLE_LINE1":"1 53057U 22077Q   23046.92512692  .00000075  00000-0  10462-4 0  9998","SEMIMAJOR_AXIS":"6941.122","ARG_OF_PERICENTER":"89.7654","RA_OF_ASC_NODE":"229.7391","REF_FRAME":"TEME","MEAN_MOTION":"15.01268029","OBJECT_TYPE":"PAYLOAD","FILE":"3795153","REV_AT_EPOCH":"3321","EPHEMERIS_TYPE":"0","NORAD_CAT_ID":"53057","MEAN_ANOMALY":"270.3671","TIME_SYSTEM":"UTC","BSTAR":"0.00001046200000","ECCENTRICITY":"0.00008750","GP_ID":"225553201","MEAN_MOTION_DOT":"0.00000075"},{"EPOCH":"2023-02-15T11:06:00.674784","PERIOD":"95.919","CLASSIFICATION_TYPE":"U","TLE_LINE2":"2 53058  97.6579 229.2800 0000571  83.2282 276.9007 15.01263881 33144","OBJECT_NAME":"STARLINK-4317","DECAY_DATE":null,"COUNTRY_CODE":"US","MEAN_ELEMENT_THEORY":"SGP4","INCLINATION":"97.6579","PERIAPSIS":"562.604","APOAPSIS":"563.396","RCS_SIZE":"LARGE","MEAN_MOTION_DDOT":"0.0000000000000","OBJECT_ID":"2022-077R","LAUNCH_DATE":"2022-07-11","ELEMENT_SET_NO":"999","FILE":"3793706","OBJECT_TYPE":"PAYLOAD","REV_AT_EPOCH":"3314","NORAD_CAT_ID":"53058","EPHEMERIS_TYPE":"0","TIME_SYSTEM":"UTC","MEAN_ANOMALY":"276.9007","BSTAR":"0.00007644200000","GP_ID":"225494446","ECCENTRICITY":"0.00005710","MEAN_MOTION_DOT":"0.00000923","CENTER_NAME":"EARTH","SITE":"AFWTR","TLE_LINE1":"1 53058U 22077R   23046.46250781  .00000923  00000-0  76442-4 0  9998","ARG_OF_PERICENTER":"83.2282","SEMIMAJOR_AXIS":"6941.135","RA_OF_ASC_NODE":"229.2800","REF_FRAME":"TEME","MEAN_MOTION":"15.01263881"},{"RCS_SIZE":"LARGE","APOAPSIS":"563.784","INCLINATION":"97.6573","PERIAPSIS":"561.942","LAUNCH_DATE":"2022-07-11","ELEMENT_SET_NO":"999","MEAN_MOTION_DDOT":"0.0000000000000","OBJECT_ID":"2022-077S","OBJECT_NAME":"STARLINK-4320","TLE_LINE2":"2 53059  97.6573 229.6081 0001327  87.3736 272.7640 15.01308158 33192","CLASSIFICATION_TYPE":"U","PERIOD":"95.916","EPOCH":"2023-02-15T18:55:13.374336","MEAN_ELEMENT_THEORY":"SGP4","DECAY_DATE":null,"COUNTRY_CODE":"US","TLE_LINE1":"1 53059U 22077S   23046.78834924 -.00006829  00000-0 -52691-3 0  9993","SEMIMAJOR_AXIS":"6940.998","ARG_OF_PERICENTER":"87.3736","CENTER_NAME":"EARTH","SITE":"AFWTR","MEAN_MOTION":"15.01308158","RA_OF_ASC_NODE":"229.6081","REF_FRAME":"TEME","NORAD_CAT_ID":"53059","EPHEMERIS_TYPE":"0","MEAN_ANOMALY":"272.7640","TIME_SYSTEM":"UTC","BSTAR":"-0.00052691000000","OBJECT_TYPE":"PAYLOAD","FILE":"3795153","REV_AT_EPOCH":"3319","ECCENTRICITY":"0.00013270","GP_ID":"225552207","MEAN_MOTION_DOT":"-0.00006829"},{"REV_AT_EPOCH":"3314","OBJECT_TYPE":"PAYLOAD","FILE":"3793706","BSTAR":"0.00018773000000","NORAD_CAT_ID":"53060","EPHEMERIS_TYPE":"0","MEAN_ANOMALY":"267.2762","TIME_SYSTEM":"UTC","MEAN_MOTION_DOT":"0.00002353","ECCENTRICITY":"0.00014290","GP_ID":"225492955","SITE":"AFWTR","CENTER_NAME":"EARTH","SEMIMAJOR_AXIS":"6941.141","ARG_OF_PERICENTER":"92.8625","TLE_LINE1":"1 53060U 22077T   23046.46041346  .00002353  00000-0  18773-3 0  9997","REF_FRAME":"TEME","RA_OF_ASC_NODE":"229.2801","MEAN_MOTION":"15.01262057","PERIOD":"95.919","EPOCH":"2023-02-15T11:02:59.722944","OBJECT_NAME":"STARLINK-4305","CLASSIFICATION_TYPE":"U","TLE_LINE2":"2 53060  97.6578 229.2801 0001429  92.8625 267.2762 15.01262057 33142","COUNTRY_CODE":"US","DECAY_DATE":null,"MEAN_ELEMENT_THEORY":"SGP4","PERIAPSIS":"562.014","INCLINATION":"97.6578","RCS_SIZE":"LARGE","APOAPSIS":"563.997","OBJECT_ID":"2022-077T","MEAN_MOTION_DDOT":"0.0000000000000","ELEMENT_SET_NO":"999","LAUNCH_DATE":"2022-07-11"},{"CENTER_NAME":"EARTH","SITE":"AFWTR","TLE_LINE1":"1 53061U 22077U   23046.85292178  .00003643  00000-0  28798-3 0  9993","SEMIMAJOR_AXIS":"6941.100","ARG_OF_PERICENTER":"97.1892","RA_OF_ASC_NODE":"229.6708","REF_FRAME":"TEME","MEAN_MOTION":"15.01275357","OBJECT_TYPE":"PAYLOAD","FILE":"3795153","REV_AT_EPOCH":"3320","EPHEMERIS_TYPE":"0","NORAD_CAT_ID":"53061","TIME_SYSTEM":"UTC","MEAN_ANOMALY":"262.9564","BSTAR":"0.00028798000000","GP_ID":"225553695","ECCENTRICITY":"0.00020350","MEAN_MOTION_DOT":"0.00003643","INCLINATION":"97.6575","PERIAPSIS":"561.552","APOAPSIS":"564.377","RCS_SIZE":"LARGE","MEAN_MOTION_DDOT":"0.0000000000000","OBJECT_ID":"2022-077U","LAUNCH_DATE":"2022-07-11","ELEMENT_SET_NO":"999","PERIOD":"95.918","EPOCH":"2023-02-15T20:28:12.441792","OBJECT_NAME":"STARLINK-4308","CLASSIFICATION_TYPE":"U","TLE_LINE2":"2 53061  97.6575 229.6708 0002035  97.1892 262.9564 15.01275357 33204","DECAY_DATE":null,"COUNTRY_CODE":"US","MEAN_ELEMENT_THEORY":"SGP4"},{"PERIAPSIS":"562.140","INCLINATION":"97.6575","APOAPSIS":"563.853","RCS_SIZE":"LARGE","OBJECT_ID":"2022-077V","MEAN_MOTION_DDOT":"0.0000000000000","ELEMENT_SET_NO":"999","LAUNCH_DATE":"2022-07-11","EPOCH":"2023-02-15T18:57:33.516000","PERIOD":"95.919","TLE_LINE2":"2 53062  97.6575 229.6086 0001234  88.5922 271.5443 15.01265007 33193","CLASSIFICATION_TYPE":"U","OBJECT_NAME":"STARLINK-4311","COUNTRY_CODE":"US","DECAY_DATE":null,"MEAN_ELEMENT_THEORY":"SGP4","SITE":"AFWTR","CENTER_NAME":"EARTH","ARG_OF_PERICENTER":"88.5922","SEMIMAJOR_AXIS":"6941.131","TLE_LINE1":"1 53062U 22077V   23046.78997125  .00001340  00000-0  10892-3 0  9998","REF_FRAME":"TEME","RA_OF_ASC_NODE":"229.6086","MEAN_MOTION":"15.01265007","REV_AT_EPOCH":"3319","FILE":"3795153","OBJECT_TYPE":"PAYLOAD","BSTAR":"0.00010892000000","NORAD_CAT_ID":"53062","EPHEMERIS_TYPE":"0","MEAN_ANOMALY":"271.5443","TIME_SYSTEM":"UTC","MEAN_MOTION_DOT":"0.00001340","GP_ID":"225553937","ECCENTRICITY":"0.00012340"}];
